CCSDS_OMM_VERS = 2.0
CREATION_DATE  = 
ORIGINATOR     = 

OBJECT_NAME    = SL-14 R/B
OBJECT_ID      = 1991-042B
CENTER_NAME    = EARTH
REF_FRAME      = TEME
TIME_SYSTEM    = UTC
MEAN_ELEMENT_THEORY = SGP/SGP4

EPOCH          = 2026-01-23T09:06:54.401184
MEAN_MOTION    = 14.81784394
ECCENTRICITY   = .00179196
INCLINATION    = 82.4916
RA_OF_ASC_NODE = 262.6803
ARG_OF_PERICENTER = 34.2264
MEAN_ANOMALY   = 326.0101

EPHEMERIS_TYPE = 0
CLASSIFICATION_TYPE = U
NORAD_CAT_ID   = 21423
ELEMENT_SET_NO = 999
REV_AT_EPOCH   = 84636
BSTAR          = .90213091E-4
MEAN_MOTION_DOT = .737E-5
MEAN_MOTION_DDOT = 0

CCSDS_OMM_VERS = 2.0
CREATION_DATE  = 
ORIGINATOR     = 

OBJECT_NAME    = ERS-1
OBJECT_ID      = 1991-050A
CENTER_NAME    = EARTH
REF_FRAME      = TEME
TIME_SYSTEM    = UTC
MEAN_ELEMENT_THEORY = SGP/SGP4

EPOCH          = 2026-01-23T12:21:10.034208
MEAN_MOTION    = 14.39406514
ECCENTRICITY   = .0031524
INCLINATION    = 98.7897
RA_OF_ASC_NODE = 40.6140
ARG_OF_PERICENTER = 338.1615
MEAN_ANOMALY   = 21.8227

EPHEMERIS_TYPE = 0
CLASSIFICATION_TYPE = U
NORAD_CAT_ID   = 21574
ELEMENT_SET_NO = 999
REV_AT_EPOCH   = 80923
BSTAR          = .22679918E-3
MEAN_MOTION_DOT = .663E-5
MEAN_MOTION_DDOT = 0

CCSDS_OMM_VERS = 2.0
CREATION_DATE  = 
ORIGINATOR     = 

OBJECT_NAME    = ARIANE 40 R/B
OBJECT_ID      = 1991-050F
CENTER_NAME    = EARTH
REF_FRAME      = TEME
TIME_SYSTEM    = UTC
MEAN_ELEMENT_THEORY = SGP/SGP4

EPOCH          = 2026-01-23T14:29:17.398176
MEAN_MOTION    = 14.42855278
ECCENTRICITY   = .00028404
INCLINATION    = 98.2104
RA_OF_ASC_NODE = 77.5118
ARG_OF_PERICENTER = 188.3129
MEAN_ANOMALY   = 171.8015

EPHEMERIS_TYPE = 0
CLASSIFICATION_TYPE = U
NORAD_CAT_ID   = 21610
ELEMENT_SET_NO = 999
REV_AT_EPOCH   = 81249
BSTAR          = .22276511E-3
MEAN_MOTION_DOT = .702E-5
MEAN_MOTION_DDOT = 0

CCSDS_OMM_VERS = 2.0
CREATION_DATE  = 
ORIGINATOR     = 

OBJECT_NAME    = INTERCOSMOS 25
OBJECT_ID      = 1991-086A
CENTER_NAME    = EARTH
REF_FRAME      = TEME
TIME_SYSTEM    = UTC
MEAN_ELEMENT_THEORY = SGP/SGP4

EPOCH          = 2026-01-23T07:54:56.394432
MEAN_MOTION    = 12.11872219
ECCENTRICITY   = .14861227
INCLINATION    = 82.6092
RA_OF_ASC_NODE = 337.4201
ARG_OF_PERICENTER = 214.6795
MEAN_ANOMALY   = 134.8048

EPHEMERIS_TYPE = 0
CLASSIFICATION_TYPE = U
NORAD_CAT_ID   = 21819
ELEMENT_SET_NO = 999
REV_AT_EPOCH   = 49119
BSTAR          = .31313636E-3
MEAN_MOTION_DOT = .1587E-4
MEAN_MOTION_DDOT = 0

CCSDS_OMM_VERS = 2.0
CREATION_DATE  = 
ORIGINATOR     = 

OBJECT_NAME    = SL-8 R/B
OBJECT_ID      = 1992-008B
CENTER_NAME    = EARTH
REF_FRAME      = TEME
TIME_SYSTEM    = UTC
MEAN_ELEMENT_THEORY = SGP/SGP4

EPOCH          = 2026-01-23T06:49:53.657184
MEAN_MOTION    = 13.75967806
ECCENTRICITY   = .00333124
INCLINATION    = 82.9288
RA_OF_ASC_NODE = 301.5508
ARG_OF_PERICENTER = 261.5058
MEAN_ANOMALY   = 214.0219

EPHEMERIS_TYPE = 0
CLASSIFICATION_TYPE = U
NORAD_CAT_ID   = 21876
ELEMENT_SET_NO = 999
REV_AT_EPOCH   = 70317
BSTAR          = .12375729E-3
MEAN_MOTION_DOT = .135E-5
MEAN_MOTION_DDOT = 0

CCSDS_OMM_VERS = 2.0
CREATION_DATE  = 
ORIGINATOR     = 

OBJECT_NAME    = SL-8 R/B
OBJECT_ID      = 1992-020B
CENTER_NAME    = EARTH
REF_FRAME      = TEME
TIME_SYSTEM    = UTC
MEAN_ELEMENT_THEORY = SGP/SGP4

EPOCH          = 2026-01-23T12:30:09.255744
MEAN_MOTION    = 13.75540839
ECCENTRICITY   = .00301056
INCLINATION    = 82.9303
RA_OF_ASC_NODE = 187.2903
ARG_OF_PERICENTER = 65.1260
MEAN_ANOMALY   = 355.4784

EPHEMERIS_TYPE = 0
CLASSIFICATION_TYPE = U
NORAD_CAT_ID   = 21938
ELEMENT_SET_NO = 999
REV_AT_EPOCH   = 69492
BSTAR          = .18945348E-3
MEAN_MOTION_DOT = .198E-5
MEAN_MOTION_DDOT = 0

CCSDS_OMM_VERS = 2.0
CREATION_DATE  = 
ORIGINATOR     = 

OBJECT_NAME    = USA 81
OBJECT_ID      = 1992-023A
CENTER_NAME    = EARTH
REF_FRAME      = TEME
TIME_SYSTEM    = UTC
MEAN_ELEMENT_THEORY = SGP/SGP4

EPOCH          = 2026-01-23T14:24:25.333344
MEAN_MOTION    = 14.32347845
ECCENTRICITY   = .00020917
INCLINATION    = 85.0111
RA_OF_ASC_NODE = 157.4370
ARG_OF_PERICENTER = 115.1288
MEAN_ANOMALY   = 245.0122

EPHEMERIS_TYPE = 0
CLASSIFICATION_TYPE = U
NORAD_CAT_ID   = 21949
ELEMENT_SET_NO = 999
REV_AT_EPOCH   = 8833
BSTAR          = .14865889E-3
MEAN_MOTION_DOT = .421E-5
MEAN_MOTION_DDOT = 0

CCSDS_OMM_VERS = 2.0
CREATION_DATE  = 
ORIGINATOR     = 

OBJECT_NAME    = COSMOS 2219
OBJECT_ID      = 1992-076A
CENTER_NAME    = EARTH
REF_FRAME      = TEME
TIME_SYSTEM    = UTC
MEAN_ELEMENT_THEORY = SGP/SGP4

EPOCH          = 2026-01-23T12:45:02.749248
MEAN_MOTION    = 14.14081190
ECCENTRICITY   = .00208297
INCLINATION    = 71.0614
RA_OF_ASC_NODE = 112.4749
ARG_OF_PERICENTER = 269.7112
MEAN_ANOMALY   = 90.1624

EPHEMERIS_TYPE = 0
CLASSIFICATION_TYPE = U
NORAD_CAT_ID   = 22219
ELEMENT_SET_NO = 999
REV_AT_EPOCH   = 71199
BSTAR          = -.29760709E-4
MEAN_MOTION_DOT = -.104E-5
MEAN_MOTION_DDOT = 0

CCSDS_OMM_VERS = 2.0
CREATION_DATE  = 
ORIGINATOR     = 

OBJECT_NAME    = SL-16 R/B
OBJECT_ID      = 1992-076B
CENTER_NAME    = EARTH
REF_FRAME      = TEME
TIME_SYSTEM    = UTC
MEAN_ELEMENT_THEORY = SGP/SGP4

EPOCH          = 2026-01-23T11:08:09.852288
MEAN_MOTION    = 14.16850545
ECCENTRICITY   = .00124477
INCLINATION    = 71.0001
RA_OF_ASC_NODE = 283.6419
ARG_OF_PERICENTER = 174.6154
MEAN_ANOMALY   = 358.6352

EPHEMERIS_TYPE = 0
CLASSIFICATION_TYPE = U
NORAD_CAT_ID   = 22220
ELEMENT_SET_NO = 999
REV_AT_EPOCH   = 71542
BSTAR          = -.36025537E-4
MEAN_MOTION_DOT = -.12E-5
MEAN_MOTION_DDOT = 0

CCSDS_OMM_VERS = 2.0
CREATION_DATE  = 
ORIGINATOR     = 

OBJECT_NAME    = COSMOS 2221
OBJECT_ID      = 1992-080A
CENTER_NAME    = EARTH
REF_FRAME      = TEME
TIME_SYSTEM    = UTC
MEAN_ELEMENT_THEORY = SGP/SGP4

EPOCH          = 2026-01-23T13:24:49.862016
MEAN_MOTION    = 14.95984970
ECCENTRICITY   = .00143364
INCLINATION    = 82.5066
RA_OF_ASC_NODE = 322.2954
ARG_OF_PERICENTER = 351.8450
MEAN_ANOMALY   = 8.2536

EPHEMERIS_TYPE = 0
CLASSIFICATION_TYPE = U
NORAD_CAT_ID   = 22236
ELEMENT_SET_NO = 999
REV_AT_EPOCH   = 77404
BSTAR          = .34521657E-3
MEAN_MOTION_DOT = .3902E-4
MEAN_MOTION_DDOT = 0

CCSDS_OMM_VERS = 2.0
CREATION_DATE  = 
ORIGINATOR     = 

OBJECT_NAME    = SL-16 R/B
OBJECT_ID      = 1992-093B
CENTER_NAME    = EARTH
REF_FRAME      = TEME
TIME_SYSTEM    = UTC
MEAN_ELEMENT_THEORY = SGP/SGP4

EPOCH          = 2026-01-23T12:15:08.806176
MEAN_MOTION    = 14.15442817
ECCENTRICITY   = .00043381
INCLINATION    = 71.0222
RA_OF_ASC_NODE = 99.1127
ARG_OF_PERICENTER = 343.9200
MEAN_ANOMALY   = 16.1784

EPHEMERIS_TYPE = 0
CLASSIFICATION_TYPE = U
NORAD_CAT_ID   = 22285
ELEMENT_SET_NO = 999
REV_AT_EPOCH   = 70676
BSTAR          = .11264372E-3
MEAN_MOTION_DOT = .172E-5
MEAN_MOTION_DDOT = 0

CCSDS_OMM_VERS = 2.0
CREATION_DATE  = 
ORIGINATOR     = 

OBJECT_NAME    = COSMOS 2228
OBJECT_ID      = 1992-094A
CENTER_NAME    = EARTH
REF_FRAME      = TEME
TIME_SYSTEM    = UTC
MEAN_ELEMENT_THEORY = SGP/SGP4

EPOCH          = 2026-01-23T16:07:03.869184
MEAN_MOTION    = 14.96968407
ECCENTRICITY   = .00196161
INCLINATION    = 82.5178
RA_OF_ASC_NODE = 280.4135
ARG_OF_PERICENTER = 92.6535
MEAN_ANOMALY   = 267.6934

EPHEMERIS_TYPE = 0
CLASSIFICATION_TYPE = U
NORAD_CAT_ID   = 22286
ELEMENT_SET_NO = 999
REV_AT_EPOCH   = 76932
BSTAR          = .29645903E-3
MEAN_MOTION_DOT = .3446E-4
MEAN_MOTION_DDOT = 0

