SL-14 R/B               
1 21423U 91042B   26023.37979631  .00000737  00000+0  90213-4 0  9991
2 21423  82.4916 262.6803 0017919  34.2264 326.0101 14.81784394846368
ERS-1                   
1 21574U 91050A   26023.51469947  .00000663  00000+0  22680-3 0  9997
2 21574  98.7897  40.6140 0031524 338.1615  21.8227 14.39406514809237
ARIANE 40 R/B           
1 21610U 91050F   26023.60367359  .00000702  00000+0  22277-3 0  9998
2 21610  98.2104  77.5118 0002840 188.3129 171.8015 14.42855278812494
INTERCOSMOS 25          
1 21819U 91086A   26023.32981938  .00001587  00000+0  31314-3 0  9996
2 21819  82.6092 337.4201 1486122 214.6795 134.8048 12.11872219491194
SL-8 R/B                
1 21876U 92008B   26023.28464881  .00000135  00000+0  12376-3 0  9997
2 21876  82.9288 301.5508 0033312 261.5058 214.0219 13.75967806703173
SL-8 R/B                
1 21938U 92020B   26023.52094046  .00000198  00000+0  18945-3 0  9996
2 21938  82.9303 187.2903 0030105  65.1260 355.4784 13.75540839694920
USA 81                  
1 21949U 92023A   26023.60029321  .00000421  00000+0  14866-3 0  9991
2 21949  85.0111 157.4370 0002091 115.1288 245.0122 14.32347845 88337
COSMOS 2219             
1 22219U 92076A   26023.53128182 -.00000104  00000+0 -29761-4 0  9998
2 22219  71.0614 112.4749 0020829 269.7112  90.1624 14.14081190711992
SL-16 R/B               
1 22220U 92076B   26023.46400292 -.00000120  00000+0 -36026-4 0  9997
2 22220  71.0001 283.6419 0012447 174.6154 358.6352 14.16850545715428
COSMOS 2221             
1 22236U 92080A   26023.55891044  .00003902  00000+0  34522-3 0  9995
2 22236  82.5066 322.2954 0014336 351.8450   8.2536 14.95984970774046
SL-16 R/B               
1 22285U 92093B   26023.51051859  .00000172  00000+0  11264-3 0  9995
2 22285  71.0222  99.1127 0004338 343.9200  16.1784 14.15442817706763
COSMOS 2228             
1 22286U 92094A   26023.67157256  .00003446  00000+0  29646-3 0  9992
2 22286  82.5178 280.4135 0019616  92.6535 267.6934 14.96968407769327
